{"type": "FeatureCollection", "features": [ {"type": "Feature", "properties": {"norad_id": 66367, "name": "STARLINK-35846", "group": "last-30-days", "lat": -26.700279732177165, "lon": 154.18766709420314, "alt_km": 406.3157735167906, "timestamp": "2025-12-05T07:38:17.626329+00:00", "meta": {"OBJECT_NAME": "STARLINK-35846", "OBJECT_ID": "2025-254V", "EPOCH": "2025-12-04T18:00:02.000160", "MEAN_MOTION": 15.57504409, "ECCENTRICITY": 0.0001157, "INCLINATION": 53.1592, "RA_OF_ASC_NODE": 314.7803, "ARG_OF_PERICENTER": 103.0747, "MEAN_ANOMALY": 165.6853, "EPHEMERIS_TYPE": 0, "CLASSIFICATION_TYPE": "U", "NORAD_CAT_ID": 66367, "ELEMENT_SET_NO": 999, "REV_AT_EPOCH": 559, "BSTAR": -0.031154, "MEAN_MOTION_DOT": -0.02080159, "MEAN_MOTION_DDOT": 0}, "tle": {"line1": "1 66367U 25254V   25338.75002315 -.02080159  00000+0 -31154-1 0  9991", "line2": "2 66367  53.1592 314.7803 0001157 103.0747 165.6853 15.57504409  5590"}}, "geometry": {"type": "Point", "coordinates": [154.18766709420314, -26.700279732177165]}}, {"type": "Feature", "properties": {"norad_id": 66368, "name": "STARLINK-34861", "group": "last-30-days", "lat": 7.566225424931517, "lon": -42.567125164069445, "alt_km": 345.56126559250333, "timestamp": "2025-12-05T07:38:17.626339+00:00", "meta": {"OBJECT_NAME": "STARLINK-34861", "OBJECT_ID": "2025-254W", "EPOCH": "2025-12-04T10:16:14.023776", "MEAN_MOTION": 15.74306271, "ECCENTRICITY": 9.47e-05, "INCLINATION": 53.1568, "RA_OF_ASC_NODE": 316.1388, "ARG_OF_PERICENTER": 118.9457, "MEAN_ANOMALY": 241.1658, "EPHEMERIS_TYPE": 0, "CLASSIFICATION_TYPE": "U", "NORAD_CAT_ID": 66368, "ELEMENT_SET_NO": 999, "REV_AT_EPOCH": 437, "BSTAR": 0.001534, "MEAN_MOTION_DOT": 0.00231487, "MEAN_MOTION_DDOT": 0}, "tle": {"line1": "1 66368U 25254W   25338.42794009  .00231487  00000+0  15340-2 0  9992", "line2": "2 66368  53.1568 316.1388 0000947 118.9457 241.1658 15.74306271  4371"}}, "geometry": {"type": "Point", "coordinates": [-42.567125164069445, 7.566225424931517]}}, {"type": "Feature", "properties": {"norad_id": 66369, "name": "STARLINK-35795", "group": "last-30-days", "lat": 7.101573371929119, "lon": -42.921873874286796, "alt_km": 345.83247202695475, "timestamp": "2025-12-05T07:38:17.626350+00:00", "meta": {"OBJECT_NAME": "STARLINK-35795", "OBJECT_ID": "2025-254X", "EPOCH": "2025-12-04T02:39:36.815328", "MEAN_MOTION": 15.74349696, "ECCENTRICITY": 0.00030446, "INCLINATION": 53.1567, "RA_OF_ASC_NODE": 317.7168, "ARG_OF_PERICENTER": 147.1731, "MEAN_ANOMALY": 212.9479, "EPHEMERIS_TYPE": 0, "CLASSIFICATION_TYPE": "U", "NORAD_CAT_ID": 66369, "ELEMENT_SET_NO": 999, "REV_AT_EPOCH": 432, "BSTAR": 0.0021458163, "MEAN_MOTION_DOT": 0.00328479, "MEAN_MOTION_DDOT": 0}, "tle": {"line1": "1 66369U 25254X   25338.11084277  .00328479  00000+0  21458-2 0  9993", "line2": "2 66369  53.1567 317.7168 0003044 147.1731 212.9479 15.74349696  4324"}}, "geometry": {"type": "Point", "coordinates": [-42.921873874286796, 7.101573371929119]}}, {"type": "Feature", "properties": {"norad_id": 66370, "name": "STARLINK-35824", "group": "last-30-days", "lat": 11.152082513494138, "lon": -39.79144353895746, "alt_km": 342.08363171769815, "timestamp": "2025-12-05T07:38:17.626360+00:00", "meta": {"OBJECT_NAME": "STARLINK-35824", "OBJECT_ID": "2025-254Y", "EPOCH": "2025-12-04T02:38:39.081120", "MEAN_MOTION": 15.74459234, "ECCENTRICITY": 3.668e-05, "INCLINATION": 53.1568, "RA_OF_ASC_NODE": 317.7129, "ARG_OF_PERICENTER": 67.6917, "MEAN_ANOMALY": 292.4142, "EPHEMERIS_TYPE": 0, "CLASSIFICATION_TYPE": "U", "NORAD_CAT_ID": 66370, "ELEMENT_SET_NO": 999, "REV_AT_EPOCH": 432, "BSTAR": 0.0031685267, "MEAN_MOTION_DOT": 0.00497732, "MEAN_MOTION_DDOT": 0}, "tle": {"line1": "1 66370U 25254Y   25338.11017455  .00497732  00000+0  31685-2 0  9991", "line2": "2 66370  53.1568 317.7129 0000366  67.6917 292.4142 15.74459234  4320"}}, "geometry": {"type": "Point", "coordinates": [-39.79144353895746, 11.152082513494138]}}, {"type": "Feature", "properties": {"norad_id": 66371, "name": "STARLINK-35804", "group": "last-30-days", "lat": 11.207509450326295, "lon": -39.74861449696393, "alt_km": 345.87653966397374, "timestamp": "2025-12-05T07:38:17.626370+00:00", "meta": {"OBJECT_NAME": "STARLINK-35804", "OBJECT_ID": "2025-254Z", "EPOCH": "2025-12-04T18:00:02.000160", "MEAN_MOTION": 15.74014365, "ECCENTRICITY": 0.0001171, "INCLINATION": 53.1576, "RA_OF_ASC_NODE": 314.5283, "ARG_OF_PERICENTER": 99.5152, "MEAN_ANOMALY": 292.5899, "EPHEMERIS_TYPE": 0, "CLASSIFICATION_TYPE": "U", "NORAD_CAT_ID": 66371, "ELEMENT_SET_NO": 999, "REV_AT_EPOCH": 563, "BSTAR": 0.0018199, "MEAN_MOTION_DOT": 0.00272638, "MEAN_MOTION_DDOT": 0}, "tle": {"line1": "1 66371U 25254Z   25338.75002315  .00272638  00000+0  18199-2 0  9992", "line2": "2 66371  53.1576 314.5283 0001171  99.5152 292.5899 15.74014365  5633"}}, "geometry": {"type": "Point", "coordinates": [-39.74861449696393, 11.207509450326295]}}, {"type": "Feature", "properties": {"norad_id": 66372, "name": "STARLINK-35821", "group": "last-30-days", "lat": 11.455330223935533, "lon": -39.55200107943353, "alt_km": 342.5938551017698, "timestamp": "2025-12-05T07:38:17.626382+00:00", "meta": {"OBJECT_NAME": "STARLINK-35821", "OBJECT_ID": "2025-254AA", "EPOCH": "2025-12-04T10:15:15.064416", "MEAN_MOTION": 15.7441561, "ECCENTRICITY": 0.0001567, "INCLINATION": 53.1569, "RA_OF_ASC_NODE": 316.1358, "ARG_OF_PERICENTER": 64.6576, "MEAN_ANOMALY": 295.4606, "EPHEMERIS_TYPE": 0, "CLASSIFICATION_TYPE": "U", "NORAD_CAT_ID": 66372, "ELEMENT_SET_NO": 999, "REV_AT_EPOCH": 437, "BSTAR": 0.0030875, "MEAN_MOTION_DOT": 0.00483155, "MEAN_MOTION_DDOT": 0}, "tle": {"line1": "1 66372U 25254AA  25338.42725769  .00483155  00000+0  30875-2 0  9995", "line2": "2 66372  53.1569 316.1358 0001567  64.6576 295.4606 15.74415610  4375"}}, "geometry": {"type": "Point", "coordinates": [-39.55200107943353, 11.455330223935533]}}, {"type": "Feature", "properties": {"norad_id": 66373, "name": "STARLINK-35809", "group": "last-30-days", "lat": 13.356401642784121, "lon": -38.0427972999963, "alt_km": 343.154995889623, "timestamp": "2025-12-05T07:38:17.626407+00:00", "meta": {"OBJECT_NAME": "STARLINK-35809", "OBJECT_ID": "2025-254AB", "EPOCH": "2025-12-04T13:17:08.403936", "MEAN_MOTION": 15.74247855, "ECCENTRICITY": 0.0002466, "INCLINATION": 53.1569, "RA_OF_ASC_NODE": 315.4998, "ARG_OF_PERICENTER": 35.503, "MEAN_ANOMALY": 324.6154, "EPHEMERIS_TYPE": 0, "CLASSIFICATION_TYPE": "U", "NORAD_CAT_ID": 66373, "ELEMENT_SET_NO": 999, "REV_AT_EPOCH": 439, "BSTAR": 0.0016939, "MEAN_MOTION_DOT": 0.00255782, "MEAN_MOTION_DDOT": 0}, "tle": {"line1": "1 66373U 25254AB  25338.55356949  .00255782  00000+0  16939-2 0  9998", "line2": "2 66373  53.1569 315.4998 0002466  35.5030 324.6154 15.74247855  4398"}}, "geometry": {"type": "Point", "coordinates": [-38.0427972999963, 13.356401642784121]}}, {"type": "Feature", "properties": {"norad_id": 66374, "name": "STARLINK-35831", "group": "last-30-days", "lat": 15.187697359736624, "lon": -36.55848631586837, "alt_km": 343.81125935815817, "timestamp": "2025-12-05T07:38:17.626418+00:00", "meta": {"OBJECT_NAME": "STARLINK-35831", "OBJECT_ID": "2025-254AC", "EPOCH": "2025-12-04T11:45:13.351104", "MEAN_MOTION": 15.74328879, "ECCENTRICITY": 9.31e-05, "INCLINATION": 53.1571, "RA_OF_ASC_NODE": 315.8123, "ARG_OF_PERICENTER": 87.3429, "MEAN_ANOMALY": 272.7697, "EPHEMERIS_TYPE": 0, "CLASSIFICATION_TYPE": "U", "NORAD_CAT_ID": 66374, "ELEMENT_SET_NO": 999, "REV_AT_EPOCH": 438, "BSTAR": 0.0017955, "MEAN_MOTION_DOT": 0.00272652, "MEAN_MOTION_DDOT": 0}, "tle": {"line1": "1 66374U 25254AC  25338.48973786  .00272652  00000+0  17955-2 0  9999", "line2": "2 66374  53.1571 315.8123 0000931  87.3429 272.7697 15.74328879  4388"}}, "geometry": {"type": "Point", "coordinates": [-36.55848631586837, 15.187697359736624]}}, {"type": "Feature", "properties": {"norad_id": 66375, "name": "STARLINK-35826", "group": "last-30-days", "lat": 16.668196078111887, "lon": -35.33284407070843, "alt_km": 344.50916252767456, "timestamp": "2025-12-05T07:38:17.626428+00:00", "meta": {"OBJECT_NAME": "STARLINK-35826", "OBJECT_ID": "2025-254AD", "EPOCH": "2025-12-04T11:44:44.246400", "MEAN_MOTION": 15.74318171, "ECCENTRICITY": 0.0001315, "INCLINATION": 53.1566, "RA_OF_ASC_NODE": 315.8103, "ARG_OF_PERICENTER": 162.131, "MEAN_ANOMALY": 197.9756, "EPHEMERIS_TYPE": 0, "CLASSIFICATION_TYPE": "U", "NORAD_CAT_ID": 66375, "ELEMENT_SET_NO": 999, "REV_AT_EPOCH": 438, "BSTAR": 0.0018459, "MEAN_MOTION_DOT": 0.00280457, "MEAN_MOTION_DDOT": 0}, "tle": {"line1": "1 66375U 25254AD  25338.48940100  .00280457  00000+0  18459-2 0  9996", "line2": "2 66375  53.1566 315.8103 0001315 162.1310 197.9756 15.74318171  4387"}}, "geometry": {"type": "Point", "coordinates": [-35.33284407070843, 16.668196078111887]}}, {"type": "Feature", "properties": {"norad_id": 66376, "name": "SHIYAN-32 01", "group": "last-30-days", "lat": 52.870613641014536, "lon": -61.663461790604096, "alt_km": 428.36318608987494, "timestamp": "2025-12-05T07:38:17.626438+00:00", "meta": {"OBJECT_NAME": "SHIYAN-32 01", "OBJECT_ID": "2025-255A", "EPOCH": "2025-12-04T17:16:03.464256", "MEAN_MOTION": 15.42376261, "ECCENTRICITY": 0.001346, "INCLINATION": 52.9961, "RA_OF_ASC_NODE": 216.2015, "ARG_OF_PERICENTER": 17.3744, "MEAN_ANOMALY": 342.7717, "EPHEMERIS_TYPE": 0, "CLASSIFICATION_TYPE": "U", "NORAD_CAT_ID": 66376, "ELEMENT_SET_NO": 999, "REV_AT_EPOCH": 411, "BSTAR": 0.00079382, "MEAN_MOTION_DOT": 0.00034646, "MEAN_MOTION_DDOT": 0}, "tle": {"line1": "1 66376U 25255A   25338.71948454  .00034646  00000+0  79382-3 0  9994", "line2": "2 66376  52.9961 216.2015 0013460  17.3744 342.7717 15.42376261  4113"}}, "geometry": {"type": "Point", "coordinates": [-61.663461790604096, 52.870613641014536]}}]}